ONEWEB-0176             
1 48210U 21031A   25287.16630615 -.00000222  00000+0 -63389-3 0  9993
2 48210  87.9047 338.7059 0001972 101.6991 258.4361 13.14503843215990
ONEWEB-0184             
1 48211U 21031B   25287.21546419  .00000240  00000+0  61242-3 0  9992
2 48211  87.9055 338.6707 0002316 119.9395 240.1965 13.14504414215973
ONEWEB-0179             
1 48212U 21031C   25287.18612762 -.00000094  00000+0 -28839-3 0  9998
2 48212  87.9040 338.6894 0001933  95.6762 264.4589 13.14501919216011
ONEWEB-0180             
1 48213U 21031D   25287.21864293  .00000186  00000+0  46788-3 0  9994
2 48213  87.9058 338.6760 0002215  99.3082 260.8298 13.14502418215902
ONEWEB-0218             
1 48214U 21031E   25287.16472483 -.00000106  00000+0 -32065-3 0  9992
2 48214  87.9057 338.6874 0002530 116.2059 243.9331 13.14502087216050
ONEWEB-0209             
1 48215U 21031F   25287.22974286 -.00000016  00000+0 -78154-4 0  9998
2 48215  87.9053 338.7162 0002072  94.5846 265.5521 13.14501921216069
ONEWEB-0198             
1 48216U 21031G   25287.21401431  .00000168  00000+0  41780-3 0  9995
2 48216  87.9044 338.7176 0002383 102.6272 257.5124 13.14502978216179
ONEWEB-0189             
1 48217U 21031H   25287.15045147 -.00000568  00000+0 -15674-2 0  9995
2 48217  87.9043 338.7031 0002403 100.1688 259.9713 13.14506411215902
